{
  "type": "FeatureCollection",
  "features": [
    {
      "type": "Feature",
      "properties": {
        "norad_id": 60182,
        "name": "ALOS-4 (DAICHI-4)",
        "group": "resource",
        "lat": 69.91598082945836,
        "lon": -68.71710686764528,
        "alt_km": 623.2464402066626,
        "timestamp": "2025-12-20T03:42:47.050057+00:00",
        "meta_object_name": "ALOS-4 (DAICHI-4)",
        "meta_object_id": "2024-123A",
        "meta_epoch": "2025-12-19T20:43:54.639840",
        "meta_mean_motion": 14.79474045,
        "meta_eccentricity": 0.0001386,
        "meta_inclination": 97.9224,
        "meta_ra_of_asc_node": 88.6094,
        "meta_arg_of_pericenter": 101.4337,
        "meta_mean_anomaly": 258.7031,
        "meta_ephemeris_type": 0,
        "meta_classification_type": "U",
        "meta_norad_cat_id": 60182,
        "meta_element_set_no": 999,
        "meta_rev_at_epoch": 7936,
        "meta_bstar": 0.00019776,
        "meta_mean_motion_dot": 1.426e-05,
        "meta_mean_motion_ddot": 0,
        "tle_line1": "1 60182U 24123A   25353.86382685  .00001426  00000+0  19776-3 0  9998",
        "tle_line2": "2 60182  97.9224  88.6094 0001386 101.4337 258.7031 14.79474045 79360"
      },
      "geometry": {
        "type": "Point",
        "coordinates": [
          -68.71710686764528,
          69.91598082945836
        ]
      }
    },
    {
      "type": "Feature",
      "properties": {
        "norad_id": 60452,
        "name": "LEGION 3",
        "group": "resource",
        "lat": 44.71567814962257,
        "lon": 8.184309151380175,
        "alt_km": 520.2356211826973,
        "timestamp": "2025-12-20T03:42:47.050067+00:00",
        "meta_object_name": "LEGION 3",
        "meta_object_id": "2024-146A",
        "meta_epoch": "2025-12-19T16:13:16.062240",
        "meta_mean_motion": 15.15829906,
        "meta_eccentricity": 0.0015616,
        "meta_inclination": 45.0022,
        "meta_ra_of_asc_node": 272.9476,
        "meta_arg_of_pericenter": 236.0936,
        "meta_mean_anomaly": 123.8458,
        "meta_ephemeris_type": 0,
        "meta_classification_type": "U",
        "meta_norad_cat_id": 60452,
        "meta_element_set_no": 999,
        "meta_rev_at_epoch": 7478,
        "meta_bstar": 0.00017712,
        "meta_mean_motion_dot": 3.187e-05,
        "meta_mean_motion_ddot": 0,
        "tle_line1": "1 60452U 24146A   25353.67588035  .00003187  00000+0  17712-3 0  9993",
        "tle_line2": "2 60452  45.0022 272.9476 0015616 236.0936 123.8458 15.15829906 74780"
      },
      "geometry": {
        "type": "Point",
        "coordinates": [
          8.184309151380175,
          44.71567814962257
        ]
      }
    },
    {
      "type": "Feature",
      "properties": {
        "norad_id": 60453,
        "name": "LEGION 4",
        "group": "resource",
        "lat": 44.871329767292906,
        "lon": 97.97717070507335,
        "alt_km": 512.7958883316087,
        "timestamp": "2025-12-20T03:42:47.050078+00:00",
        "meta_object_name": "LEGION 4",
        "meta_object_id": "2024-146B",
        "meta_epoch": "2025-12-19T17:48:38.964096",
        "meta_mean_motion": 15.15892363,
        "meta_eccentricity": 0.0008815,
        "meta_inclination": 45.0395,
        "meta_ra_of_asc_node": 4.3645,
        "meta_arg_of_pericenter": 348.481,
        "meta_mean_anomaly": 11.5866,
        "meta_ephemeris_type": 0,
        "meta_classification_type": "U",
        "meta_norad_cat_id": 60453,
        "meta_element_set_no": 999,
        "meta_rev_at_epoch": 7364,
        "meta_bstar": 0.00018302,
        "meta_mean_motion_dot": 3.302e-05,
        "meta_mean_motion_ddot": 0,
        "tle_line1": "1 60453U 24146B   25353.74211764  .00003302  00000+0  18302-3 0  9999",
        "tle_line2": "2 60453  45.0395   4.3645 0008815 348.4810  11.5866 15.15892363 73648"
      },
      "geometry": {
        "type": "Point",
        "coordinates": [
          97.97717070507335,
          44.871329767292906
        ]
      }
    },
    {
      "type": "Feature",
      "properties": {
        "norad_id": 60989,
        "name": "SENTINEL-2C",
        "group": "resource",
        "lat": 15.54251952459726,
        "lon": 64.12717336826125,
        "alt_km": 789.510820669233,
        "timestamp": "2025-12-20T03:42:47.050088+00:00",
        "meta_object_name": "SENTINEL-2C",
        "meta_object_id": "2024-157A",
        "meta_epoch": "2025-12-19T04:08:36.032064",
        "meta_mean_motion": 14.30819997,
        "meta_eccentricity": 0.00012209,
        "meta_inclination": 98.5677,
        "meta_ra_of_asc_node": 65.5625,
        "meta_arg_of_pericenter": 96.2932,
        "meta_mean_anomaly": 263.839,
        "meta_ephemeris_type": 0,
        "meta_classification_type": "U",
        "meta_norad_cat_id": 60989,
        "meta_element_set_no": 999,
        "meta_rev_at_epoch": 6724,
        "meta_bstar": 5.9972626e-05,
        "meta_mean_motion_dot": 1.14e-06,
        "meta_mean_motion_ddot": 0,
        "tle_line1": "1 60989U 24157A   25353.17263926  .00000114  00000+0  59973-4 0  9997",
        "tle_line2": "2 60989  98.5677  65.5625 0001220  96.2932 263.8390 14.30819997 67242"
      },
      "geometry": {
        "type": "Point",
        "coordinates": [
          64.12717336826125,
          15.54251952459726
        ]
      }
    },
    {
      "type": "Feature",
      "properties": {
        "norad_id": 61735,
        "name": "IONOSFERA-M 1",
        "group": "resource",
        "lat": 64.77398633232073,
        "lon": -155.1123509107973,
        "alt_km": 809.5734419513892,
        "timestamp": "2025-12-20T03:42:47.050098+00:00",
        "meta_object_name": "IONOSFERA-M 1",
        "meta_object_id": "2024-199A",
        "meta_epoch": "2025-12-19T18:57:48.694752",
        "meta_mean_motion": 14.22715455,
        "meta_eccentricity": 6.21e-05,
        "meta_inclination": 98.7399,
        "meta_ra_of_asc_node": 223.5841,
        "meta_arg_of_pericenter": 12.7318,
        "meta_mean_anomaly": 347.3875,
        "meta_ephemeris_type": 0,
        "meta_classification_type": "U",
        "meta_norad_cat_id": 61735,
        "meta_element_set_no": 999,
        "meta_rev_at_epoch": 10219,
        "meta_bstar": 3.7465e-05,
        "meta_mean_motion_dot": 4e-07,
        "meta_mean_motion_ddot": 0,
        "tle_line1": "1 61735U 24199A   25353.79014693  .00000040  00000+0  37465-4 0  9996",
        "tle_line2": "2 61735  98.7399 223.5841 0000621  12.7318 347.3875 14.22715455102191"
      },
      "geometry": {
        "type": "Point",
        "coordinates": [
          -155.1123509107973,
          64.77398633232073
        ]
      }
    },
    {
      "type": "Feature",
      "properties": {
        "norad_id": 61736,
        "name": "IONOSFERA-M 2",
        "group": "resource",
        "lat": -67.38372374656632,
        "lon": 22.188171697009896,
        "alt_km": 824.4966776540696,
        "timestamp": "2025-12-20T03:42:47.050109+00:00",
        "meta_object_name": "IONOSFERA-M 2",
        "meta_object_id": "2024-199B",
        "meta_epoch": "2025-12-19T18:06:24.958656",
        "meta_mean_motion": 14.22717649,
        "meta_eccentricity": 0.0001791,
        "meta_inclination": 98.7398,
        "meta_ra_of_asc_node": 223.4611,
        "meta_arg_of_pericenter": 101.7231,
        "meta_mean_anomaly": 258.4147,
        "meta_ephemeris_type": 0,
        "meta_classification_type": "U",
        "meta_norad_cat_id": 61736,
        "meta_element_set_no": 999,
        "meta_rev_at_epoch": 10531,
        "meta_bstar": 3.5946e-05,
        "meta_mean_motion_dot": 3.6e-07,
        "meta_mean_motion_ddot": 0,
        "tle_line1": "1 61736U 24199B   25353.75445554  .00000036  00000+0  35946-4 0  9994",
        "tle_line2": "2 61736  98.7398 223.4611 0001791 101.7231 258.4147 14.22717649105315"
      },
      "geometry": {
        "type": "Point",
        "coordinates": [
          22.188171697009896,
          -67.38372374656632
        ]
      }
    },
    {
      "type": "Feature",
      "properties": {
        "norad_id": 63772,
        "name": "BIOMASS",
        "group": "resource",
        "lat": -15.598397782099338,
        "lon": -3.213876376421524,
        "alt_km": 674.0868466909551,
        "timestamp": "2025-12-20T03:42:47.050118+00:00",
        "meta_object_name": "BIOMASS",
        "meta_object_id": "2025-090A",
        "meta_epoch": "2025-12-19T10:27:38.474208",
        "meta_mean_motion": 14.67534976,
        "meta_eccentricity": 0.000107,
        "meta_inclination": 98.07,
        "meta_ra_of_asc_node": 178.3481,
        "meta_arg_of_pericenter": 79.7157,
        "meta_mean_anomaly": 280.4168,
        "meta_ephemeris_type": 0,
        "meta_classification_type": "U",
        "meta_norad_cat_id": 63772,
        "meta_element_set_no": 999,
        "meta_rev_at_epoch": 3432,
        "meta_bstar": 0.00014315,
        "meta_mean_motion_dot": 7.64e-06,
        "meta_mean_motion_ddot": 0,
        "tle_line1": "1 63772U 25090A   25353.43586197  .00000764  00000+0  14315-3 0  9995",
        "tle_line2": "2 63772  98.0700 178.3481 0001070  79.7157 280.4168 14.67534976 34320"
      },
      "geometry": {
        "type": "Point",
        "coordinates": [
          -3.213876376421524,
          -15.598397782099338
        ]
      }
    }
  ]
}